{"type": "FeatureCollection", "features": [ {"type": "Feature", "properties": {"norad_id": 32260, "name": "GPS BIIRM-4 (PRN 15)", "group": "gnss", "lat": 30.46835972936179, "lon": -117.54668089068886, "alt_km": 19929.392890016297, "timestamp": "2025-12-11T22:43:47.509404+00:00", "meta": {"OBJECT_NAME": "GPS BIIRM-4 (PRN 15)", "OBJECT_ID": "2007-047A", "EPOCH": "2025-12-10T06:15:19.310688", "MEAN_MOTION": 2.00564571, "ECCENTRICITY": 0.0164232, "INCLINATION": 53.9536, "RA_OF_ASC_NODE": 87.861, "ARG_OF_PERICENTER": 85.2178, "MEAN_ANOMALY": 276.6503, "EPHEMERIS_TYPE": 0, "CLASSIFICATION_TYPE": "U", "NORAD_CAT_ID": 32260, "ELEMENT_SET_NO": 999, "REV_AT_EPOCH": 13302, "BSTAR": 0, "MEAN_MOTION_DOT": -1.7e-07, "MEAN_MOTION_DDOT": 0}, "tle": {"line1": "1 32260U 07047A   25344.26064017 -.00000017  00000+0  00000+0 0  9992", "line2": "2 32260  53.9536  87.8610 0164232  85.2178 276.6503  2.00564571133023"}}, "geometry": {"type": "Point", "coordinates": [-117.54668089068886, 30.46835972936179]}}, {"type": "Feature", "properties": {"norad_id": 32275, "name": "COSMOS 2433 (720)", "group": "gnss", "lat": -21.398324938138153, "lon": 152.42672853215223, "alt_km": 19123.643079383935, "timestamp": "2025-12-11T22:43:47.509416+00:00", "meta": {"OBJECT_NAME": "COSMOS 2433 (720)", "OBJECT_ID": "2007-052A", "EPOCH": "2025-12-10T06:34:19.673184", "MEAN_MOTION": 2.13103813, "ECCENTRICITY": 0.00055546, "INCLINATION": 65.6847, "RA_OF_ASC_NODE": 322.2886, "ARG_OF_PERICENTER": 252.6006, "MEAN_ANOMALY": 107.3381, "EPHEMERIS_TYPE": 0, "CLASSIFICATION_TYPE": "U", "NORAD_CAT_ID": 32275, "ELEMENT_SET_NO": 999, "REV_AT_EPOCH": 14103, "BSTAR": 0, "MEAN_MOTION_DOT": -5e-07, "MEAN_MOTION_DDOT": 0}, "tle": {"line1": "1 32275U 07052A   25344.27383881 -.00000050  00000+0  00000+0 0  9995", "line2": "2 32275  65.6847 322.2886 0005554 252.6006 107.3381  2.13103813141032"}}, "geometry": {"type": "Point", "coordinates": [152.42672853215223, -21.398324938138153]}}, {"type": "Feature", "properties": {"norad_id": 32276, "name": "COSMOS 2432 (719)", "group": "gnss", "lat": 28.806323386209723, "lon": 127.96361287413269, "alt_km": 19154.1189580564, "timestamp": "2025-12-11T22:43:47.509428+00:00", "meta": {"OBJECT_NAME": "COSMOS 2432 (719)", "OBJECT_ID": "2007-052B", "EPOCH": "2025-12-10T13:56:19.351392", "MEAN_MOTION": 2.13102999, "ECCENTRICITY": 0.0011254, "INCLINATION": 65.7001, "RA_OF_ASC_NODE": 322.4023, "ARG_OF_PERICENTER": 311.5771, "MEAN_ANOMALY": 228.309, "EPHEMERIS_TYPE": 0, "CLASSIFICATION_TYPE": "U", "NORAD_CAT_ID": 32276, "ELEMENT_SET_NO": 999, "REV_AT_EPOCH": 14106, "BSTAR": 0, "MEAN_MOTION_DOT": -5e-07, "MEAN_MOTION_DDOT": 0}, "tle": {"line1": "1 32276U 07052B   25344.58077953 -.00000050  00000+0  00000+0 0  9990", "line2": "2 32276  65.7001 322.4023 0011254 311.5771 228.3090  2.13102999141067"}}, "geometry": {"type": "Point", "coordinates": [127.96361287413269, 28.806323386209723]}}, {"type": "Feature", "properties": {"norad_id": 32384, "name": "GPS BIIRM-5 (PRN 29)", "group": "gnss", "lat": -55.187743426755716, "lon": -169.85853828358617, "alt_km": 20211.19935486826, "timestamp": "2025-12-11T22:43:47.509441+00:00", "meta": {"OBJECT_NAME": "GPS BIIRM-5 (PRN 29)", "OBJECT_ID": "2007-062A", "EPOCH": "2025-12-11T07:35:29.001696", "MEAN_MOTION": 2.00577198, "ECCENTRICITY": 0.00322342, "INCLINATION": 55.1834, "RA_OF_ASC_NODE": 281.703, "ARG_OF_PERICENTER": 162.5016, "MEAN_ANOMALY": 10.7784, "EPHEMERIS_TYPE": 0, "CLASSIFICATION_TYPE": "U", "NORAD_CAT_ID": 32384, "ELEMENT_SET_NO": 999, "REV_AT_EPOCH": 13174, "BSTAR": 0, "MEAN_MOTION_DOT": -7e-07, "MEAN_MOTION_DDOT": 0}, "tle": {"line1": "1 32384U 07062A   25345.31630789 -.00000070  00000+0  00000+0 0  9997", "line2": "2 32384  55.1834 281.7030 0032234 162.5016  10.7784  2.00577198131746"}}, "geometry": {"type": "Point", "coordinates": [-169.85853828358617, -55.187743426755716]}}, {"type": "Feature", "properties": {"norad_id": 32393, "name": "COSMOS 2434 (721)", "group": "gnss", "lat": 63.9816109608618, "lon": -62.127253748287856, "alt_km": 19112.978183123454, "timestamp": "2025-12-11T22:43:47.509453+00:00", "meta": {"OBJECT_NAME": "COSMOS 2434 (721)", "OBJECT_ID": "2007-065A", "EPOCH": "2025-12-10T15:35:17.035872", "MEAN_MOTION": 2.13101152, "ECCENTRICITY": 0.0004304, "INCLINATION": 64.3147, "RA_OF_ASC_NODE": 198.2738, "ARG_OF_PERICENTER": 71.148, "MEAN_ANOMALY": 107.63, "EPHEMERIS_TYPE": 0, "CLASSIFICATION_TYPE": "U", "NORAD_CAT_ID": 32393, "ELEMENT_SET_NO": 999, "REV_AT_EPOCH": 13975, "BSTAR": 0, "MEAN_MOTION_DOT": 4.8e-07, "MEAN_MOTION_DDOT": 0}, "tle": {"line1": "1 32393U 07065A   25344.64950273  .00000048  00000+0  00000+0 0  9992", "line2": "2 32393  64.3147 198.2738 0004304  71.1480 107.6300  2.13101152139755"}}, "geometry": {"type": "Point", "coordinates": [-62.127253748287856, 63.9816109608618]}}, {"type": "Feature", "properties": {"norad_id": 32395, "name": "COSMOS 2436 (723)", "group": "gnss", "lat": -41.36566252430428, "lon": 43.36468622480856, "alt_km": 19170.900070847485, "timestamp": "2025-12-11T22:43:47.509464+00:00", "meta": {"OBJECT_NAME": "COSMOS 2436 (723)", "OBJECT_ID": "2007-065C", "EPOCH": "2025-12-08T02:01:11.627904", "MEAN_MOTION": 2.13100022, "ECCENTRICITY": 0.00177472, "INCLINATION": 64.3236, "RA_OF_ASC_NODE": 198.4308, "ARG_OF_PERICENTER": 9.2257, "MEAN_ANOMALY": 134.6131, "EPHEMERIS_TYPE": 0, "CLASSIFICATION_TYPE": "U", "NORAD_CAT_ID": 32395, "ELEMENT_SET_NO": 999, "REV_AT_EPOCH": 13965, "BSTAR": 0, "MEAN_MOTION_DOT": 5.1e-07, "MEAN_MOTION_DDOT": 0}, "tle": {"line1": "1 32395U 07065C   25342.08416236  .00000051  00000+0  00000+0 0  9990", "line2": "2 32395  64.3236 198.4308 0017747   9.2257 134.6131  2.13100022139656"}}, "geometry": {"type": "Point", "coordinates": [43.36468622480856, -41.36566252430428]}}, {"type": "Feature", "properties": {"norad_id": 32711, "name": "GPS BIIRM-6 (PRN 07)", "group": "gnss", "lat": -9.208565804488599, "lon": -15.949723518473217, "alt_km": 19857.9934352348, "timestamp": "2025-12-11T22:43:47.509476+00:00", "meta": {"OBJECT_NAME": "GPS BIIRM-6 (PRN 07)", "OBJECT_ID": "2008-012A", "EPOCH": "2025-12-10T16:18:30.026016", "MEAN_MOTION": 2.00565518, "ECCENTRICITY": 0.0202357, "INCLINATION": 54.4769, "RA_OF_ASC_NODE": 157.4551, "ARG_OF_PERICENTER": 244.9238, "MEAN_ANOMALY": 112.9713, "EPHEMERIS_TYPE": 0, "CLASSIFICATION_TYPE": "U", "NORAD_CAT_ID": 32711, "ELEMENT_SET_NO": 999, "REV_AT_EPOCH": 12997, "BSTAR": 0, "MEAN_MOTION_DOT": 7.9e-07, "MEAN_MOTION_DDOT": 0}, "tle": {"line1": "1 32711U 08012A   25344.67951419  .00000079  00000+0  00000+0 0  9999", "line2": "2 32711  54.4769 157.4551 0202357 244.9238 112.9713  2.00565518129974"}}, "geometry": {"type": "Point", "coordinates": [-15.949723518473217, -9.208565804488599]}}, {"type": "Feature", "properties": {"norad_id": 35752, "name": "GPS BIIRM-8 (PRN 05)", "group": "gnss", "lat": -27.335510340323793, "lon": -124.83948929852873, "alt_km": 20276.874892493383, "timestamp": "2025-12-11T22:43:47.509488+00:00", "meta": {"OBJECT_NAME": "GPS BIIRM-8 (PRN 05)", "OBJECT_ID": "2009-043A", "EPOCH": "2025-12-10T15:39:24.141600", "MEAN_MOTION": 2.0056577, "ECCENTRICITY": 0.0051863, "INCLINATION": 56.0896, "RA_OF_ASC_NODE": 34.8654, "ARG_OF_PERICENTER": 81.9471, "MEAN_ANOMALY": 276.3471, "EPHEMERIS_TYPE": 0, "CLASSIFICATION_TYPE": "U", "NORAD_CAT_ID": 35752, "ELEMENT_SET_NO": 999, "REV_AT_EPOCH": 11957, "BSTAR": 0, "MEAN_MOTION_DOT": -9.3e-07, "MEAN_MOTION_DDOT": 0}, "tle": {"line1": "1 35752U 09043A   25344.65236275 -.00000093  00000+0  00000+0 0  9993", "line2": "2 35752  56.0896  34.8654 0051863  81.9471 276.3471  2.00565770119576"}}, "geometry": {"type": "Point", "coordinates": [-124.83948929852873, -27.335510340323793]}}, {"type": "Feature", "properties": {"norad_id": 36111, "name": "COSMOS 2456 (730)", "group": "gnss", "lat": -59.07995276759558, "lon": -51.2349577737484, "alt_km": 19131.212587742706, "timestamp": "2025-12-11T22:43:47.509500+00:00", "meta": {"OBJECT_NAME": "COSMOS 2456 (730)", "OBJECT_ID": "2009-070A", "EPOCH": "2025-12-09T05:47:54.858624", "MEAN_MOTION": 2.13103359, "ECCENTRICITY": 0.00028383, "INCLINATION": 64.8981, "RA_OF_ASC_NODE": 77.4578, "ARG_OF_PERICENTER": 298.5783, "MEAN_ANOMALY": 37.1692, "EPHEMERIS_TYPE": 0, "CLASSIFICATION_TYPE": "U", "NORAD_CAT_ID": 36111, "ELEMENT_SET_NO": 999, "REV_AT_EPOCH": 12437, "BSTAR": 0, "MEAN_MOTION_DOT": -1.7e-07, "MEAN_MOTION_DDOT": 0}, "tle": {"line1": "1 36111U 09070A   25343.24160716 -.00000017  00000+0  00000+0 0  9999", "line2": "2 36111  64.8981  77.4578 0002838 298.5783  37.1692  2.13103359124373"}}, "geometry": {"type": "Point", "coordinates": [-51.2349577737484, -59.07995276759558]}}, {"type": "Feature", "properties": {"norad_id": 36112, "name": "COSMOS 2457 (733)", "group": "gnss", "lat": 18.399503211391533, "lon": 86.18151478199283, "alt_km": 19136.890562599903, "timestamp": "2025-12-11T22:43:47.509512+00:00", "meta": {"OBJECT_NAME": "COSMOS 2457 (733)", "OBJECT_ID": "2009-070B", "EPOCH": "2025-12-09T23:48:31.817088", "MEAN_MOTION": 2.13100761, "ECCENTRICITY": 0.00048188, "INCLINATION": 64.8839, "RA_OF_ASC_NODE": 77.2797, "ARG_OF_PERICENTER": 156.0783, "MEAN_ANOMALY": 164.5444, "EPHEMERIS_TYPE": 0, "CLASSIFICATION_TYPE": "U", "NORAD_CAT_ID": 36112, "ELEMENT_SET_NO": 999, "REV_AT_EPOCH": 12439, "BSTAR": 0, "MEAN_MOTION_DOT": -2.2e-07, "MEAN_MOTION_DDOT": 0}, "tle": {"line1": "1 36112U 09070B   25343.99203492 -.00000022  00000+0  00000+0 0  9997", "line2": "2 36112  64.8839  77.2797 0004818 156.0783 164.5444  2.13100761124391"}}, "geometry": {"type": "Point", "coordinates": [86.18151478199283, 18.399503211391533]}}]}